STARLETTE               
1 07646U 75010A   26095.22007874 -.00000155  00000+0 -98389-5 0  9992
2 07646  49.8267  32.6050 0205637 181.9862 178.0233 13.82349379584443
LAGEOS 1                
1 08820U 76039A   26095.11182127 -.00000001  00000+0  00000+0 0  9998
2 08820 109.8109 154.3289 0044674 317.9263  61.6842  6.38664839908474
AJISAI (EGS)            
1 16908U 86061A   26095.30220205 -.00000086  00000+0  82815-4 0  9993
2 16908  50.0121  11.5146 0011369 355.5038  96.7484 12.44515678471319
COSMOS 1989 (ETALON 1)  
1 19751U 89001C   26094.22623786 -.00000005  00000+0  00000+0 0  9992
2 19751  64.9042  74.7233 0023401 217.6455 232.7159  2.13156089289795
COSMOS 2024 (ETALON 2)  
1 20026U 89039C   26095.08443973 -.00000041  00000+0  00000+0 0  9993
2 20026  64.9786 313.0551 0020490 213.1143 320.7218  2.13204691286940
LAGEOS 2                
1 22195U 92070B   26079.09060082 -.00000009  00000+0  00000+0 0  9994
2 22195  52.6746 322.9737 0137714 148.3601   4.1736  6.47293426789659
STELLA                  
1 22824U 93061B   26095.29982569 -.00000026  00000+0  79135-5 0  9997
2 22824  98.7787 159.2684 0007490  89.5770 359.2186 14.27468466694378
LARETS                  
1 27944U 03042F   26095.18291389  .00000104  00000+0  29669-4 0  9998
2 27944  98.4066 255.8875 0011035 263.4329  96.5616 14.63855732202685
LARES                   
1 38077U 12006A   26095.28426613 -.00000049  00000+0 -66886-4 0  9990
2 38077  69.4913  56.7678 0006570 118.6708 241.4980 12.54932150647925
LARES-2                 
1 53105U 22080A   26090.22335241 -.00000019  00000+0  00000+0 0  9994
2 53105  70.1721 332.0673 0005952   3.9036 356.1767  6.38965054 86689
